TERRESTAR-1             
1 35496U 09035A   25312.41027485 -.00000055  00000+0  00000+0 0  9997
2 35496   5.0043  48.7795 0002488 177.8685 217.8860  1.00273623 59926
ASIASAT 5               
1 35696U 09042A   25312.61157115 -.00000306  00000+0  00000+0 0  9992
2 35696   0.0202 281.1374 0001573 293.4021 154.1627  1.00271555 59497
JCSAT-12 (JCSAT-RA)     
1 35755U 09044A   25312.48615993 -.00000326  00000+0  00000+0 0  9990
2 35755   0.0137 304.2308 0002166 314.5151  96.2632  1.00269715 59398
OPTUS D3                
1 35756U 09044B   25312.42852149 -.00000144  00000+0  00000+0 0  9999
2 35756   0.5661 271.0033 0001447  62.2032  25.0540  1.00268993 59359
NIMIQ 5                 
1 35873U 09050A   25312.42599383 -.00000255  00000+0  00000+0 0  9997
2 35873   0.0126 273.2365 0003215 320.6275 254.6843  1.00275579 59137
AMAZONAS 2              
1 35942U 09054A   25312.44793975 -.00000280  00000+0  00000+0 0  9991
2 35942   1.2408  86.0129 0003755 146.6834 275.6668  1.00273178 58976
COMSATBW-1              
1 35943U 09054B   25312.49766773  .00000027  00000+0  00000+0 0  9991
2 35943   0.0063 278.1907 0002865 333.0901  38.8192  1.00270980 59089
NSS-12                  
1 36032U 09058A   25312.52776949  .00000073  00000+0  00000+0 0  9996
2 36032   0.0969  75.4533 0003974 163.9283  55.5983  1.00271451 58708
THOR 6                  
1 36033U 09058B   25312.31716153 -.00000007  00000+0  00000+0 0  9993
2 36033   0.0466  98.7246 0001962 132.7670 289.6156  1.00271131 58795
INTELSAT 14 (IS-14)     
1 36097U 09064A   25312.45105976 -.00000271  00000+0  00000+0 0  9993
2 36097   0.0121 297.2284 0002648 288.8533 299.2217  1.00270004 58393
EUTELSAT 36B            
1 36101U 09065A   25312.47003985  .00000114  00000+0  00000+0 0  9994
2 36101   0.0461 358.9496 0006379 232.7595  35.9275  1.00269341 58499
INTELSAT 15 (IS-15)     
1 36106U 09067A   25312.51474116 -.00000183  00000+0  00000+0 0  9991
2 36106   0.0128 323.3960 0002540 270.4681  84.5654  1.00270767 39019
WGS F3 (USA 211)        
1 36108U 09068A   25312.40417535 -.00000116  00000+0  00000+0 0  9990
2 36108   0.2664  86.4876 0000564 161.6621  23.3961  1.00273335 44382
DIRECTV 12              
1 36131U 09075A   25312.43964634 -.00000101  00000+0  00000+0 0  9998
2 36131   0.0157  40.5319 0000705 230.0778 192.8449  1.00270481 44345
BEIDOU-2 G1             
1 36287U 10001A   25312.48780662 -.00000277  00000+0  00000+0 0  9997
2 36287   3.7765  60.7949 0003380 240.6242  62.5865  1.00273198 57954
SDO                     
1 36395U 10005A   25312.52705845 -.00000068  00000+0  00000+0 0  9994
2 36395  34.1890  89.7068 0001836 122.5173 283.8288  1.00271016 57852
INTELSAT 16 (IS-16)     
1 36397U 10006A   25312.42434325 -.00000242  00000+0  00000+0 0  9992
2 36397   0.0132 293.8483 0002271 300.1761 250.4211  1.00271241 57446
EWS-G2 (GOES 15)        
1 36411U 10008A   25312.48749954  .00000036  00000+0  00000+0 0  9994
2 36411   0.7250  85.8609 0006542 159.1766  40.1207  1.00276164 57428
ECHOSTAR 14             
1 36499U 10010A   25312.43643965  .00000003  00000+0  00000+0 0  9997
2 36499   0.0151 275.6168 0001999 316.3867 214.1100  1.00269530 44336
SES-1                   
1 36516U 10016A   25312.43999301 -.00000112  00000+0  00000+0 0  9993
2 36516   0.0169 309.1635 0002961 288.3937 227.7383  1.00271516 56820
ASTRA 3B                
1 36581U 10021A   25312.32184155  .00000140  00000+0  00000+0 0  9992
2 36581   0.8949  86.4249 0002343 122.8112 337.9007  1.00271284 56653
COMSATBW-2              
1 36582U 10021B   25312.36989281  .00000091  00000+0  00000+0 0  9995
2 36582   0.0640  85.5065 0003394 159.7058 309.0174  1.00267778 56743
BEIDOU-2 G3             
1 36590U 10024A   25312.51062279 -.00000134  00000+0  00000+0 0  9992
2 36590   3.9916  62.2251 0003325 317.9051 291.3316  1.00270071 56554
BADR-5                  
1 36592U 10025A   25312.46501316  .00000147  00000+0  00000+0 0  9992
2 36592   0.0591 102.8249 0004752 102.9876  35.5110  1.00272133 51009
COMS 1                  
1 36744U 10032A   25312.48862016 -.00000342  00000+0  00000+0 0  9996
2 36744   4.2572  78.3565 0001074 163.1415 110.5094  1.00271509 48875
ARABSAT-5A              
1 36745U 10032B   25312.46605316  .00000155  00000+0  00000+0 0  9994
2 36745   0.0652  41.2947 0003719 183.8231  21.0845  1.00269610 56436
ECHOSTAR 15             
1 36792U 10034A   25312.41758750  .00000002  00000+0  00000+0 0  9995
2 36792   0.0132 284.7792 0002126 291.1836 223.4334  1.00271319 56102
BEIDOU-2 IGSO-1         
1 36828U 10036A   25312.54239750 -.00000069  00000+0  00000+0 0  9999
2 36828  54.2780 164.9582 0050931 216.0780 329.1706  1.00286031 55887
NILESAT 201             
1 36830U 10037A   25312.38727524 -.00000055  00000+0  00000+0 0  9991
2 36830   0.0370 124.9319 0005482  88.2405 327.0928  1.00270920 56156
RASCOM-QAF 1R           
1 36831U 10037B   25312.31785486  .00000021  00000+0  00000+0 0  9998
2 36831   0.0047 283.5847 0006996 314.8197 286.7003  1.00270286 56096
AEHF-1 (USA 214)        
1 36868U 10039A   25312.46596649  .00000150  00000+0  00000+0 0  9990
2 36868   7.6739  70.8318 0004777 154.7259  20.1075  1.00276136 51445
XM-5                    
1 37185U 10053A   25312.43713300 -.00000021  00000+0  00000+0 0  9999
2 37185   0.0578 271.1335 0000687 241.1065 297.8335  1.00270033 55270
BSAT-3B                 
1 37207U 10056B   25312.48173992 -.00000348  00000+0  00000+0 0  9991
2 37207   0.0291 228.6517 0004920   6.0642  96.5014  1.00272112 49887
BEIDOU-2 G4             
1 37210U 10057A   25312.54397950 -.00000110  00000+0  00000+0 0  9992
2 37210   3.0977  70.0348 0010537 181.8857 151.9038  1.00272366 55078
SKYTERRA 1              
1 37218U 10061A   25312.41438890 -.00000116  00000+0  00000+0 0  9996
2 37218   4.6545  50.8653 0005820 190.8802 213.9802  1.00271506 54980
HYLAS 1                 
1 37237U 10065A   25312.42398831 -.00000232  00000+0  00000+0 0  9991
2 37237   5.0822  75.7244 0002167 197.2135 208.5764  1.00269948  4672
INTELSAT 17 (IS-17)     
1 37238U 10065B   25312.50730352  .00000000  00000+0  00000+0 0  9991
2 37238   0.0063 241.6447 0002342 347.4529  67.4989  1.00270911 51030
BEIDOU-2 IGSO-2         
1 37256U 10068A   25295.62146750 -.00000196  00000+0  00000+0 0  9997
2 37256  47.9774 274.7760 0047363 217.7614 226.5684  1.00248503 54417
EUTELSAT KA-SAT 9A      
1 37258U 10069A   25312.24774115  .00000065  00000+0  00000+0 0  9994
2 37258   0.0617 315.6114 0002450 222.6080 327.7423  1.00270151 41799
HISPASAT 30W-5          
1 37264U 10070A   25312.38259522 -.00000214  00000+0  00000+0 0  9995
2 37264   0.0633  95.2432 0004284 110.3869 309.9547  1.00270013 50979
KOREASAT 6              
1 37265U 10070B   25312.48952615 -.00000109  00000+0  00000+0 0  9993
2 37265   0.0517  88.6686 0002557 155.0951 140.2902  1.00271150 54559
BEIDOU-2 IGSO-3         
1 37384U 11013A   25311.74728713 -.00000202  00000+0  00000+0 0  9995
2 37384  62.0978  42.2518 0035993 184.0880 197.6314  1.00278593 53441
INTELSAT 28 (IS-28)     
1 37392U 11016A   25312.38233522 -.00000222  00000+0  00000+0 0  9999
2 37392   1.2330  85.4451 0004292 152.6379 275.7025  1.00270636 51078
YAHSAT 1A               
1 37393U 11016B   25312.47038653  .00000103  00000+0  00000+0 0  9995
2 37393   0.0138 266.6340 0003381 348.3525  14.7831  1.00269580 40190
SBIRS GEO-1 (USA 230)   
1 37481U 11019A   25311.97084148  .00000103  00000+0  00000+0 0  9990
2 37481   4.0505  52.8587 0002027 177.7729 218.1092  1.00272281 53188
TELSTAR 14R             
1 37602U 11021A   25312.42951965 -.00000278  00000+0  00000+0 0  9993
2 37602   0.0167 275.5459 0001573  10.6893 213.2877  1.00271935 53628
GSAT-8                  
1 37605U 11022A   25312.49556274  .00000087  00000+0  00000+0 0  9995
2 37605   1.5584  84.5673 0008502 168.3392  28.5336  1.00271237 51002
ST-2                    
1 37606U 11022B   25312.51560192 -.00000209  00000+0  00000+0 0  9990
2 37606   0.0026  97.2327 0002315 163.0856  61.2844  1.00270684 53069
ZHONGXING-10            
1 37677U 11026A   25312.53296253 -.00000102  00000+0  00000+0 0  9990
2 37677   0.4733  86.7728 0005920 165.2382  64.5492  1.00270673 52788
SES-3                   
1 37748U 11035A   25312.41394042 -.00000099  00000+0  00000+0 0  9996
2 37748   0.7535  85.3322 0002697 168.1017 200.4519  1.00270719 52388
KAZSAT-2                
1 37749U 11035B   25312.51474088 -.00000195  00000+0  00000+0 0  9994
2 37749   0.0112 290.8721 0002287 349.9605  38.9409  1.00269604 51186
BEIDOU-2 IGSO-4         
1 37763U 11038A   25311.56266876  .00000020  00000+0  00000+0 0  9997
2 37763  54.5762 167.6613 0147968 230.3608 304.4504  1.00288713 52427
ASTRA 1N                
1 37775U 11041A   25312.24973449  .00000123  00000+0  00000+0 0  9995
2 37775   0.1005  55.8534 0001547 203.1977 257.7813  1.00272588 42319
BSAT-3C (JCSAT-110R)    
1 37776U 11041B   25312.48182659 -.00000349  00000+0  00000+0 0  9998
2 37776   0.0115 325.4208 0000107 319.1889  46.7376  1.00273176 48260
PAKSAT-1R               
1 37779U 11042A   25312.46752652  .00000156  00000+0  00000+0 0  9991
2 37779   0.1151  84.9801 0000714 131.3230  37.8561  1.00270599 52266
SES-2                   
1 37809U 11049A   25312.42017206 -.00000194  00000+0  00000+0 0  9990
2 37809   0.0522  76.1795 0003054 156.7552 239.2134  1.00270771 51753
ARABSAT-5C              
1 37810U 11049B   25312.32123487  .00000126  00000+0  00000+0 0  9994
2 37810   0.0607  25.8162 0004852 195.8846 321.7374  1.00274236 51826
EUTELSAT 7 WEST A       
1 37816U 11051A   25312.38718859 -.00000058  00000+0  00000+0 0  9997
2 37816   0.0862  40.9375 0006567 176.5733 322.4204  1.00271748 51662
QUETZSAT 1              
1 37826U 11054A   25312.42434248 -.00000239  00000+0  00000+0 0  9994
2 37826   0.0604  78.5361 0002676 154.9412 250.1850  1.00270321 47665
